STARLINK-3344           
1 51110U 22005G   24330.12318120 -.00000325  00000+0 -23433-5 0  9998
2 51110  53.2179 237.0672 0001424 101.2436 258.8716 15.08836638157998
STARLINK-3173           
1 51111U 22005H   24330.16733788  .00001203  00000+0  93644-4 0  9998
2 51111  53.2160 236.8847 0001500 100.1942 259.9219 15.08847865157999
STARLINK-3374           
1 51112U 22005J   24329.98797658  .00000017  00000+0  19141-4 0  9995
2 51112  53.2185 237.6647 0001595  93.0405 267.0769 15.08841225157974
STARLINK-3372           
1 51113U 22005K   24330.17840637 -.00000914  00000+0 -39361-4 0  9999
2 51113  53.2175 236.8329 0001366 102.7965 257.3180 15.08817918157990
STARLINK-3375           
1 51114U 22005L   24330.72669365  .00001390  00000+0  10540-3 0  9992
2 51114  53.2169 234.3736 0000595 107.9398 252.1659 15.08841254159197
STARLINK-3397           
1 51115U 22005M   24330.03853766  .00000970  00000+0  79030-4 0  9990
2 51115  53.2185 237.4619 0001452 110.2417 249.8732 15.08839098157974
STARLINK-3243           
1 51116U 22005N   24330.18301192  .00002595  00000+0  18103-3 0  9996
2 51116  53.2176 236.7909 0001478  98.9277 261.1883 15.08844634157991
STARLINK-3391           
1 51117U 22005P   24330.01276791  .00000970  00000+0  79044-4 0  9992
2 51117  53.2161 237.4627 0001417  86.9680 273.1475 15.08843536157977
STARLINK-3394           
1 51118U 22005Q   24329.97597840 -.00000217  00000+0  44981-5 0  9995
2 51118  53.2169 237.7486 0001817 113.3244 246.7939 15.08843945157961
STARLINK-3398           
1 51120U 22005S   24330.01374041  .00002242  00000+0  15892-3 0  9997
2 51120  53.2165 237.5841 0001531  83.4633 276.6533 15.08843586157979
STARLINK-3399           
1 51121U 22005T   24330.75709959 -.00000485  00000+0 -12394-4 0  9993
2 51121  53.2157 234.2467 0000957  86.4491 273.6611 15.08852247159199
STARLINK-3392           
1 51123U 22005V   24330.00910175  .00000644  00000+0  58567-4 0  9994
2 51123  53.2168 237.5949 0001449  93.1782 266.9376 15.08840026157978
STARLINK-3389           
1 51124U 22005W   24330.78097538  .00000966  00000+0  78789-4 0  9994
2 51124  53.2172 244.1299 0001408  95.5802 264.5351 15.08845181159066
STARLINK-3387           
1 51125U 22005X   24330.17473930  .00002641  00000+0  18393-3 0  9998
2 51125  53.2165 246.8587 0001488  92.6906 267.4256 15.08846612157849
STARLINK-3386           
1 51126U 22005Y   24330.04961809  .00000974  00000+0  79261-4 0  9991
2 51126  53.2171 247.4224 0001501  81.0959 279.0203 15.08845538157845
STARLINK-3370           
1 51127U 22005Z   24330.77460193  .00011955  00000+0  76812-3 0  9991
2 51127  53.2170 244.1654 0001465 106.3548 253.7605 15.08833045159061
STARLINK-3400           
1 51128U 22005AA  24330.75517942  .00005822  00000+0  38319-3 0  9991
2 51128  53.2168 244.2467 0000764 115.6186 244.4885 15.08878191159051
STARLINK-3396           
1 51129U 22005AB  24330.18577493  .00000182  00000+0  29547-4 0  9994
2 51129  53.2183 246.8003 0001594  76.3582 283.7588 15.08841910157859
STARLINK-3395           
1 51130U 22005AC  24330.17010443  .00012269  00000+0  78697-3 0  9990
2 51130  53.2156 246.8699 0001773 100.9827 259.1364 15.08870285157842
STARLINK-3388           
1 51131U 22005AD  24330.09650415  .00001055  00000+0  84344-4 0  9999
2 51131  53.2181 247.2043 0001430  84.6091 275.5064 15.08840170157838
STARLINK-3393           
1 51132U 22005AE  24330.10017460 -.00000411  00000+0 -77524-5 0  9999
2 51132  53.2166 247.1857 0001437  98.5216 261.5939 15.08839456157835
STARLINK-3356           
1 51133U 22005AF  24330.08914324  .00000379  00000+0  41892-4 0  9991
2 51133  53.2169 247.2331 0001290  86.3646 273.7493 15.08837456157834
STARLINK-3183           
1 51134U 22005AG  24330.05789871  .00000785  00000+0  67419-4 0  9990
2 51134  53.2174 237.3756 0001139 110.9457 249.1657 15.08839882157988
STARLINK-3363           
1 51135U 22005AH  24330.08070712  .00032736  00000+0  20326-2 0  9996
2 51135  53.2166 247.2277 0001540 107.2433 252.8728 15.09425741157837
STARLINK-3253           
1 51136U 22005AJ  24330.06703869 -.00000969  00000+0 -42820-4 0  9991
2 51136  53.2175 247.1296 0001531 105.9341 254.1820 15.08839123157831
STARLINK-3180           
1 51137U 22005AK  24330.00818280 -.00000467  00000+0 -11252-4 0  9998
2 51137  53.2180 247.6038 0001469  93.2840 266.8321 15.08841005157838
STARLINK-3177           
1 51138U 22005AL  24330.01554356 -.00000485  00000+0 -12416-4 0  9994
2 51138  53.2178 247.5686 0001282 105.7035 254.4099 15.08841794157821
STARLINK-3172           
1 51139U 22005AM  24330.73041909  .00001383  00000+0  10500-3 0  9996
2 51139  53.2183 244.3704 0001396  96.9353 263.1798 15.08838188159057
STARLINK-3175           
1 51140U 22005AN  24330.01281816  .00000905  00000+0  74965-4 0  9997
2 51140  53.2180 247.5918 0001526 114.0041 246.1111 15.08835078157838
STARLINK-3179           
1 51141U 22005AP  24330.05969543 -.00002121  00000+0 -11520-3 0  9993
2 51141  53.2167 247.3679 0001493 111.2097 248.9054 15.08839746157842
STARLINK-3369           
1 51142U 22005AQ  24330.06062968  .00008090  00000+0  52561-3 0  9999
2 51142  53.2164 237.4360 0001427 124.4010 235.7117 15.08854644157977
STARLINK-3184           
1 51143U 22005AR  24330.77269965  .00001264  00000+0  97510-4 0  9994
2 51143  53.2177 254.1666 0001559 116.6069 243.5083 15.08845191158911
STARLINK-3185           
1 51144U 22005AS  24330.19682052  .00005122  00000+0  33984-3 0  9998
2 51144  53.2174 246.7588 0001948 130.0329 230.0835 15.08819153157868
STARLINK-3365           
1 51145U 22005AT  24330.58334491  .01237247  00000+0  18163-1 0  9999
2 51145  53.2157 252.0777 0001054 107.2134  33.2765 15.52277428  5755
STARLINK-3354           
1 51146U 22005AU  24330.20417179  .00000860  00000+0  72096-4 0  9990
2 51146  53.2178 246.7290 0001614 102.6979 257.4194 15.08845140157855
STARLINK-3352           
1 51147U 22005AV  24330.04132846  .00001291  00000+0  99148-4 0  9994
2 51147  53.2164 257.3863 0001310  98.5404 261.5737 15.08843318157690
STARLINK-3359           
1 51148U 22005AW  24330.18855842  .00002574  00000+0  17973-3 0  9998
2 51148  53.2172 256.9919 0001663  90.6835 269.4348 15.08849801158823
STARLINK-3360           
1 51149U 22005AX  24330.08179171 -.00000169  00000+0  74529-5 0  9993
2 51149  53.2181 257.0847 0001592  99.0013 261.1159 15.08842101157709
STARLINK-3357           
1 51150U 22005AY  24330.08541606  .00001108  00000+0  87679-4 0  9993
2 51150  53.2178 246.8670 0001258 100.1102 260.0032 15.08840459157857
STARLINK-3361           
1 51151U 22005AZ  24330.02000407  .00028920  00000+0  12591-2 0  9997
2 51151  53.2173 250.5499 0004161  72.3094 287.8358 15.22019344157798
STARLINK-3364           
1 51152U 22005BA  24330.19120818 -.00002435  00000+0 -13495-3 0  9995
2 51152  53.2164 256.3888 0001745  94.6930 265.4261 15.08835582157728
STARLINK-3167           
1 51460U 22010E   24330.91668981  .01207870  00000+0  10698-1 0  9990
2 51460  53.2121 217.9186 0001128 109.2614 298.2699 15.65338752156575
STARLINK-3181           
1 51461U 22010F   24329.99531232 -.00001357  00000+0 -67171-4 0  9999
2 51461  53.2174 227.6556 0001384 104.8404 255.2741 15.08832772155911
STARLINK-3166           
1 51462U 22010G   24329.99258478  .00009803  00000+0  63274-3 0  9999
2 51462  53.2161 227.6806 0001467  88.9513 271.1647 15.08863689156386
STARLINK-3419           
1 51463U 22010H   24330.16458530  .00001169  00000+0  91546-4 0  9993
2 51463  53.2170 226.8983 0001293 106.1760 253.9374 15.08837073155638
STARLINK-3189           
1 51464U 22010J   24329.98425932  .00000831  00000+0  70266-4 0  9993
2 51464  53.2170 227.7052 0001401 106.5810 253.5336 15.08843552156417
STARLINK-3401           
1 51465U 22010K   24330.04682385  .00002556  00000+0  17859-3 0  9994
2 51465  53.2164 227.4260 0001409  89.9993 270.1161 15.08842712156422
STARLINK-3178           
1 51467U 22010M   24329.96218533  .00000087  00000+0  23556-4 0  9994
2 51467  53.2177 227.8089 0001334  90.9855 269.1290 15.08837403155608
STARLINK-3174           
1 51468U 22010N   24330.69817762  .00000680  00000+0  60783-4 0  9998
2 51468  53.2174 224.4655 0001552 106.4131 253.7031 15.08840338156525
STARLINK-3182           
1 51469U 22010P   24330.12042155  .00003802  00000+0  25679-3 0  9996
2 51469  53.2167 227.0949 0001469  88.3581 271.7580 15.08849917155932
STARLINK-3415           
1 51472U 22010S   24330.02937089 -.00000303  00000+0 -93189-6 0  9997
2 51472  53.2171 227.4422 0001383  94.3325 265.7825 15.08839857155925
STARLINK-3528           
1 51714U 22016A   24330.23454145  .00000357  00000+0  40534-4 0  9993
2 51714  53.2173 276.5611 0001780  96.5475 263.5720 15.08841825152556
STARLINK-3533           
1 51715U 22016B   24330.16093362  .00000829  00000+0  70171-4 0  9990
2 51715  53.2176 276.9178 0001463  99.7870 260.3287 15.08848680153677
STARLINK-3543           
1 51716U 22016C   24330.29982062  .00001023  00000+0  82347-4 0  9994
2 51716  53.2171 276.2867 0001333  93.7740 266.3405 15.08838656152564
STARLINK-3445           
1 51717U 22016D   24330.17199134  .00000701  00000+0  62143-4 0  9996
2 51717  53.2172 276.9486 0001357  88.4484 271.6663 15.08839386152546
STARLINK-3546           
1 51718U 22016E   24330.28142327 -.00000469  00000+0 -11390-4 0  9992
2 51718  53.2171 276.3705 0001497 108.3058 251.8097 15.08837701153684
STARLINK-3540           
1 51719U 22016F   24330.09742948  .00003649  00000+0  24717-3 0  9994
2 51719  53.2166 277.2777 0001496 106.9603 253.1553 15.08847418152538
STARLINK-3526           
1 51720U 22016G   24330.14253385  .00000558  00000+0  53119-4 0  9999
2 51720  53.2182 276.9656 0001356  99.0994 261.0152 15.08838117152539
STARLINK-3524           
1 51721U 22016H   24330.08734000  .00000638  00000+0  58156-4 0  9996
2 51721  53.2174 277.2510 0001544 110.3751 249.7407 15.08835018152534
